{"type": "FeatureCollection", "features": [ {"type": "Feature", "properties": {"norad_id": 42741, "name": "EUTELSAT 172B", "group": "eutelsat", "lat": 0.020284053596613078, "lon": 157.3269636398838, "alt_km": 35785.684764157464, "timestamp": "2025-12-22T16:55:17.121878+00:00", "meta": {"OBJECT_NAME": "EUTELSAT 172B", "OBJECT_ID": "2017-029B", "EPOCH": "2025-12-22T03:42:39.943872", "MEAN_MOTION": 1.00271357, "ECCENTRICITY": 2.092e-05, "INCLINATION": 0.0308, "RA_OF_ASC_NODE": 122.011, "ARG_OF_PERICENTER": 339.14, "MEAN_ANOMALY": 217.4843, "EPHEMERIS_TYPE": 0, "CLASSIFICATION_TYPE": "U", "NORAD_CAT_ID": 42741, "ELEMENT_SET_NO": 999, "REV_AT_EPOCH": 3195, "BSTAR": 0, "MEAN_MOTION_DOT": 1.6e-07, "MEAN_MOTION_DDOT": 0}, "tle": {"line1": "1 42741U 17029B   25356.15462898  .00000016  00000+0  00000+0 0  9996", "line2": "2 42741   0.0308 122.0110 0000209 339.1400 217.4843  1.00271357 31952"}}, "geometry": {"type": "Point", "coordinates": [157.3269636398838, 0.020284053596613078]}}, {"type": "Feature", "properties": {"norad_id": 44334, "name": "EUTELSAT 7C", "group": "eutelsat", "lat": 0.0010705549484471544, "lon": -7.664273772001587, "alt_km": 35787.9545545547, "timestamp": "2025-12-22T16:55:17.121891+00:00", "meta": {"OBJECT_NAME": "EUTELSAT 7C", "OBJECT_ID": "2019-034B", "EPOCH": "2025-12-22T03:54:38.524896", "MEAN_MOTION": 1.00270429, "ECCENTRICITY": 0.00031022, "INCLINATION": 0.0729, "RA_OF_ASC_NODE": 180.3118, "ARG_OF_PERICENTER": 75.1349, "MEAN_ANOMALY": 261.1679, "EPHEMERIS_TYPE": 0, "CLASSIFICATION_TYPE": "U", "NORAD_CAT_ID": 44334, "ELEMENT_SET_NO": 999, "REV_AT_EPOCH": 506, "BSTAR": 0, "MEAN_MOTION_DOT": 7e-07, "MEAN_MOTION_DDOT": 0}, "tle": {"line1": "1 44334U 19034B   25356.16294589  .00000070  00000+0  00000+0 0  9995", "line2": "2 44334   0.0729 180.3118 0003102  75.1349 261.1679  1.00270429  5063"}}, "geometry": {"type": "Point", "coordinates": [-7.664273772001587, 0.0010705549484471544]}}, {"type": "Feature", "properties": {"norad_id": 44624, "name": "EUTELSAT 5 WEST B", "group": "eutelsat", "lat": -0.006429061550052217, "lon": -19.6439752918724, "alt_km": 35781.7354990777, "timestamp": "2025-12-22T16:55:17.121903+00:00", "meta": {"OBJECT_NAME": "EUTELSAT 5 WEST B", "OBJECT_ID": "2019-067A", "EPOCH": "2025-12-22T06:17:32.611200", "MEAN_MOTION": 1.00271351, "ECCENTRICITY": 0.00030366, "INCLINATION": 0.0656, "RA_OF_ASC_NODE": 338.4706, "ARG_OF_PERICENTER": 292.1222, "MEAN_ANOMALY": 269.8665, "EPHEMERIS_TYPE": 0, "CLASSIFICATION_TYPE": "U", "NORAD_CAT_ID": 44624, "ELEMENT_SET_NO": 999, "REV_AT_EPOCH": 2266, "BSTAR": 0, "MEAN_MOTION_DOT": -2e-07, "MEAN_MOTION_DDOT": 0}, "tle": {"line1": "1 44624U 19067A   25356.26218300 -.00000020  00000+0  00000+0 0  9997", "line2": "2 44624   0.0656 338.4706 0003036 292.1222 269.8665  1.00271351 22660"}}, "geometry": {"type": "Point", "coordinates": [-19.6439752918724, -0.006429061550052217]}}, {"type": "Feature", "properties": {"norad_id": 45027, "name": "EUTELSAT KONNECT", "group": "eutelsat", "lat": -0.07225146525177684, "lon": -7.462093011226243, "alt_km": 35784.6596113763, "timestamp": "2025-12-22T16:55:17.121915+00:00", "meta": {"OBJECT_NAME": "EUTELSAT KONNECT", "OBJECT_ID": "2020-005B", "EPOCH": "2025-12-22T03:54:38.524896", "MEAN_MOTION": 1.00271218, "ECCENTRICITY": 0.00013186, "INCLINATION": 0.0707, "RA_OF_ASC_NODE": 94.5088, "ARG_OF_PERICENTER": 184.2033, "MEAN_ANOMALY": 238.124, "EPHEMERIS_TYPE": 0, "CLASSIFICATION_TYPE": "U", "NORAD_CAT_ID": 45027, "ELEMENT_SET_NO": 999, "REV_AT_EPOCH": 2256, "BSTAR": 0, "MEAN_MOTION_DOT": 7.1e-07, "MEAN_MOTION_DDOT": 0}, "tle": {"line1": "1 45027U 20005B   25356.16294589  .00000071  00000+0  00000+0 0  9996", "line2": "2 45027   0.0707  94.5088 0001318 184.2033 238.1240  1.00271218 22569"}}, "geometry": {"type": "Point", "coordinates": [-7.462093011226243, -0.07225146525177684]}}, {"type": "Feature", "properties": {"norad_id": 49056, "name": "EUTELSAT QUANTUM", "group": "eutelsat", "lat": 0.018781850610905714, "lon": 33.06540392910039, "alt_km": 35791.460824781745, "timestamp": "2025-12-22T16:55:17.121927+00:00", "meta": {"OBJECT_NAME": "EUTELSAT QUANTUM", "OBJECT_ID": "2021-069B", "EPOCH": "2025-12-22T03:07:13.338336", "MEAN_MOTION": 1.00271936, "ECCENTRICITY": 0.00034622, "INCLINATION": 0.0106, "RA_OF_ASC_NODE": 358.3448, "ARG_OF_PERICENTER": 282.7947, "MEAN_ANOMALY": 264.313, "EPHEMERIS_TYPE": 0, "CLASSIFICATION_TYPE": "U", "NORAD_CAT_ID": 49056, "ELEMENT_SET_NO": 999, "REV_AT_EPOCH": 1615, "BSTAR": 0, "MEAN_MOTION_DOT": 1.48e-06, "MEAN_MOTION_DDOT": 0}, "tle": {"line1": "1 49056U 21069B   25356.13001549  .00000148  00000+0  00000+0 0  9997", "line2": "2 49056   0.0106 358.3448 0003462 282.7947 264.3130  1.00271936 16153"}}, "geometry": {"type": "Point", "coordinates": [33.06540392910039, 0.018781850610905714]}}, {"type": "Feature", "properties": {"norad_id": 53765, "name": "EUTELSAT KONNECT VHTS", "group": "eutelsat", "lat": -0.06322623521682101, "lon": -11.91449387635284, "alt_km": 35790.88078049091, "timestamp": "2025-12-22T16:55:17.121939+00:00", "meta": {"OBJECT_NAME": "EUTELSAT KONNECT VHTS", "OBJECT_ID": "2022-110A", "EPOCH": "2025-12-21T13:12:40.176000", "MEAN_MOTION": 1.00270894, "ECCENTRICITY": 0.0002618, "INCLINATION": 0.0618, "RA_OF_ASC_NODE": 99.3714, "ARG_OF_PERICENTER": 133.7511, "MEAN_ANOMALY": 58.1537, "EPHEMERIS_TYPE": 0, "CLASSIFICATION_TYPE": "U", "NORAD_CAT_ID": 53765, "ELEMENT_SET_NO": 999, "REV_AT_EPOCH": 504, "BSTAR": 0, "MEAN_MOTION_DOT": 4e-07, "MEAN_MOTION_DDOT": 0}, "tle": {"line1": "1 53765U 22110A   25355.55046500  .00000040  00000+0  00000+0 0  9999", "line2": "2 53765   0.0618  99.3714 0002618 133.7511  58.1537  1.00270894  5043"}}, "geometry": {"type": "Point", "coordinates": [-11.91449387635284, -0.06322623521682101]}}, {"type": "Feature", "properties": {"norad_id": 54048, "name": "EUTELSAT HOTBIRD 13F", "group": "eutelsat", "lat": 0.04117404181926413, "lon": -1.684287106590447, "alt_km": 35776.488299311524, "timestamp": "2025-12-22T16:55:17.121952+00:00", "meta": {"OBJECT_NAME": "EUTELSAT HOTBIRD 13F", "OBJECT_ID": "2022-134A", "EPOCH": "2025-12-21T21:49:07.084128", "MEAN_MOTION": 1.00271763, "ECCENTRICITY": 0.00022808, "INCLINATION": 0.0525, "RA_OF_ASC_NODE": 292.4073, "ARG_OF_PERICENTER": 71.4737, "MEAN_ANOMALY": 67.1177, "EPHEMERIS_TYPE": 0, "CLASSIFICATION_TYPE": "U", "NORAD_CAT_ID": 54048, "ELEMENT_SET_NO": 999, "REV_AT_EPOCH": 1160, "BSTAR": 0, "MEAN_MOTION_DOT": 1.09e-06, "MEAN_MOTION_DDOT": 0}, "tle": {"line1": "1 54048U 22134A   25355.90910977  .00000109  00000+0  00000+0 0  9993", "line2": "2 54048   0.0525 292.4073 0002280  71.4737  67.1177  1.00271763 11607"}}, "geometry": {"type": "Point", "coordinates": [-1.684287106590447, 0.04117404181926413]}}, {"type": "Feature", "properties": {"norad_id": 54225, "name": "EUTELSAT HOTBIRD 13G", "group": "eutelsat", "lat": 0.030851598590924952, "lon": -1.6931899304123756, "alt_km": 35793.362667190966, "timestamp": "2025-12-22T16:55:17.121964+00:00", "meta": {"OBJECT_NAME": "EUTELSAT HOTBIRD 13G", "OBJECT_ID": "2022-146A", "EPOCH": "2025-12-21T21:49:07.084128", "MEAN_MOTION": 1.0026968, "ECCENTRICITY": 0.00016162, "INCLINATION": 0.0526, "RA_OF_ASC_NODE": 226.0316, "ARG_OF_PERICENTER": 309.1853, "MEAN_ANOMALY": 255.7772, "EPHEMERIS_TYPE": 0, "CLASSIFICATION_TYPE": "U", "NORAD_CAT_ID": 54225, "ELEMENT_SET_NO": 999, "REV_AT_EPOCH": 568, "BSTAR": 0, "MEAN_MOTION_DOT": 1.09e-06, "MEAN_MOTION_DDOT": 0}, "tle": {"line1": "1 54225U 22146A   25355.90910977  .00000109  00000+0  00000+0 0  9993", "line2": "2 54225   0.0526 226.0316 0001616 309.1853 255.7772  1.00269680  5682"}}, "geometry": {"type": "Point", "coordinates": [-1.6931899304123756, 0.030851598590924952]}}, {"type": "Feature", "properties": {"norad_id": 54259, "name": "EUTELSAT 10B", "group": "eutelsat", "lat": -0.05960096018960728, "lon": -4.666020316344625, "alt_km": 35786.55301301629, "timestamp": "2025-12-22T16:55:17.121976+00:00", "meta": {"OBJECT_NAME": "EUTELSAT 10B", "OBJECT_ID": "2022-157A", "EPOCH": "2025-12-22T04:39:12.028608", "MEAN_MOTION": 1.00272829, "ECCENTRICITY": 7.418e-05, "INCLINATION": 0.0598, "RA_OF_ASC_NODE": 96.7964, "ARG_OF_PERICENTER": 3.3264, "MEAN_ANOMALY": 70.6993, "EPHEMERIS_TYPE": 0, "CLASSIFICATION_TYPE": "U", "NORAD_CAT_ID": 54259, "ELEMENT_SET_NO": 999, "REV_AT_EPOCH": 1125, "BSTAR": 0, "MEAN_MOTION_DOT": 9.1e-07, "MEAN_MOTION_DDOT": 0}, "tle": {"line1": "1 54259U 22157A   25356.19388922  .00000091  00000+0  00000+0 0  9993", "line2": "2 54259   0.0598  96.7964 0000741   3.3264  70.6993  1.00272829 11254"}}, "geometry": {"type": "Point", "coordinates": [-4.666020316344625, -0.05960096018960728]}}, {"type": "Feature", "properties": {"norad_id": 59346, "name": "EUTELSAT 36D", "group": "eutelsat", "lat": -0.0004522130207795662, "lon": 21.171368690965515, "alt_km": 35783.47394919158, "timestamp": "2025-12-22T16:55:17.121988+00:00", "meta": {"OBJECT_NAME": "EUTELSAT 36D", "OBJECT_ID": "2024-059A", "EPOCH": "2025-12-22T01:29:38.558112", "MEAN_MOTION": 1.00269849, "ECCENTRICITY": 7.6e-05, "INCLINATION": 0.0226, "RA_OF_ASC_NODE": 30.2034, "ARG_OF_PERICENTER": 334.9815, "MEAN_ANOMALY": 143.951, "EPHEMERIS_TYPE": 0, "CLASSIFICATION_TYPE": "U", "NORAD_CAT_ID": 59346, "ELEMENT_SET_NO": 999, "REV_AT_EPOCH": 637, "BSTAR": 0, "MEAN_MOTION_DOT": 0, "MEAN_MOTION_DDOT": 0}, "tle": {"line1": "1 59346U 24059A   25356.06225183  .00000000  00000+0  00000+0 0  9993", "line2": "2 59346   0.0226  30.2034 0000760 334.9815 143.9510  1.00269849  6375"}}, "geometry": {"type": "Point", "coordinates": [21.171368690965515, -0.0004522130207795662]}}]}